ONEWEB-0118             
1 47264U 20100G   23335.60993506  .00000143  00000+0  36141-3 0  9995
2 47264  87.9007 175.3315 0002248  88.8594 271.2792 13.12445153142926
ONEWEB-0119             
1 47265U 20100H   23335.94345457 -.00008281  00000+0 -23060-1 0  9996
2 47265  87.9007 175.3037 0001102  79.3083 280.8170 13.12483856142944
ONEWEB-0120             
1 47266U 20100J   23335.59167906  .00000784  00000+0  21451-2 0  9990
2 47266  87.9009 175.3634 0001760  88.1319 272.0011 13.12436477142922
ONEWEB-0121             
1 47267U 20100K   23335.57339495 -.00000138  00000+0 -42026-3 0  9990
2 47267  87.9004 175.3645 0001341  80.0726 280.0554 13.12445803142832
ONEWEB-0122             
1 47268U 20100L   23335.64474545 -.00001360  00000+0 -38145-2 0  9999
2 47268  87.9008 175.3552 0001801 100.0753 260.0579 13.12457027142755
ONEWEB-0123             
1 47269U 20100M   23335.94504828  .00000454  00000+0  12276-2 0  9999
2 47269  87.9010 175.3022 0001494  85.4124 274.7175 13.12444147142930
ONEWEB-0124             
1 47270U 20100N   23335.93392086  .00000243  00000+0  64007-3 0  9997
2 47270  87.9006 175.3000 0001130  86.9509 273.1749 13.12454607142812
ONEWEB-0125             
1 47271U 20100P   23335.60358420 -.00000133  00000+0 -40602-3 0  9991
2 47271  87.8945 175.3266 0001616  71.5682 288.5622 13.12444118142837
ONEWEB-0126             
1 47272U 20100Q   23335.93630564  .00000474  00000+0  12809-2 0  9993
2 47272  87.9005 175.2708 0001590  92.9853 267.1457 13.12445753142941
ONEWEB-0127             
1 47273U 20100R   23335.59244665 -.00000381  00000+0 -10946-2 0  9998
2 47273  87.9004 175.3593 0002195  95.6767 264.4612 13.12439882142927
ONEWEB-0128             
1 47274U 20100S   23335.91964914  .00000114  00000+0  28273-3 0  9996
2 47274  87.9014 175.2867 0001220  98.1497 261.9770 13.12441353142987
ONEWEB-0129             
1 47275U 20100T   23335.59404696 -.00005610  00000+0 -15633-1 0  9999
2 47275  87.8961 175.3452 0002900 101.1947 258.9508 13.12470981142872
ONEWEB-0130             
1 47276U 20100U   23335.92757313 -.00001182  00000+0 -33214-2 0  9990
2 47276  87.9010 175.2750 0001463  91.1667 268.9629 13.12445954142887
ONEWEB-0131             
1 47277U 20100V   23335.92440718  .00000184  00000+0  47504-3 0  9996
2 47277  87.9022 175.2814 0001310  88.8447 271.2832 13.12439580142928
ONEWEB-0132             
1 47278U 20100W   23335.64805277  .00000069  00000+0  15551-3 0  9990
2 47278  87.9021 175.3382 0001342  78.0359 282.0920 13.12447294142780
ONEWEB-0133             
1 47279U 20100X   23335.58768252  .00000393  00000+0  10559-2 0  9997
2 47279  87.9005 175.3643 0002055  91.5645 268.5719 13.12438045142939
ONEWEB-0134             
1 47280U 20100Y   23335.93869967  .00000467  00000+0  12633-2 0  9990
2 47280  87.9004 175.2843 0001395 100.4968 259.6318 13.12442375142954
ONEWEB-0135             
1 47281U 20100Z   23335.60197917 -.00000110  00000+0 -34244-3 0  9994
2 47281  87.9008 175.3556 0001404  89.3401 270.7889 13.12443901142930
ONEWEB-0136             
1 47282U 20100AA  23335.92917084  .00000377  00000+0  10125-2 0  9999
2 47282  87.8940 175.2636 0001486 111.1862 248.9426 13.12449694142904
ONEWEB-0137             
1 47283U 20100AB  23335.58133422 -.00000270  00000+0 -78544-3 0  9992
2 47283  87.9003 175.3620 0001636  91.3462 268.7854 13.12437773142766
ONEWEB-0138             
1 47284U 20100AC  23335.94188325  .00000524  00000+0  14224-2 0  9999
2 47284  87.9005 175.3030 0001485  90.4813 269.6485 13.12442686142899
ONEWEB-0139             
1 47285U 20100AD  23335.60834555  .00000120  00000+0  29880-3 0  9993
2 47285  87.8951 175.3394 0001395  89.0323 271.0966 13.12441204142922
ONEWEB-0140             
1 47286U 20100AE  23335.93552946 -.00000676  00000+0 -19139-2 0  9994
2 47286  87.9004 175.2789 0001468  96.2834 263.8461 13.12442552142935
ONEWEB-0141             
1 47287U 20100AF  23335.57417240 -.00002536  00000+0 -70863-2 0  9990
2 47287  87.9001 175.3477 0001786  68.8709 291.2610 13.12456446142878
ONEWEB-0142             
1 47288U 20100AG  23335.64409999 -.00011112  00000+0 -30934-1 0  9995
2 47288  87.9005 175.3269 0001438  73.0440 287.0846 13.12502980142875
ONEWEB-0143             
1 47289U 20100AH  23335.59723208 -.00000280  00000+0 -81286-3 0  9994
2 47289  87.9008 175.3545 0001449  84.8511 275.2783 13.12443955142849
ONEWEB-0144             
1 47290U 20100AJ  23335.57022321  .00000061  00000+0  13374-3 0  9990
2 47290  87.9005 175.3440 0001749  98.0727 262.0600 13.12445671142761
ONEWEB-0145             
1 47291U 20100AK  23335.92283358  .00000213  00000+0  55597-3 0  9991
2 47291  87.9006 175.2974 0001557  91.4709 268.6598 13.12444033143005
ONEWEB-0146             
1 47292U 20100AL  23335.91805810 -.00000066  00000+0 -22004-3 0  9999
2 47292  87.8924 175.3056 0001212  67.3531 292.7725 13.12441671142913
ONEWEB-0147             
1 47293U 20100AM  23335.57975490 -.00004734  00000+0 -13198-1 0  9992
2 47293  87.9002 175.3490 0001226  91.1014 269.0255 13.12460932142769
YUANGUANG               
1 47296U 20102A   23335.82439510  .00069001  00000+0  13821-2 0  9993
2 47296  97.4347  78.9309 0003904   6.7442 353.3859 15.46492281163816
HAISI 1                 
1 47297U 20102B   23335.89009727  .00055159  00000+0  14229-2 0  9996
2 47297  97.4298  75.3536 0003785   5.8135 354.3153 15.38977925163587
XJY-7                   
1 47298U 20102C   23335.89280357  .00039042  00000+0  15803-2 0  9999
2 47298  97.3880  70.9673 0011996 178.4865 181.6411 15.24517005163680
TIANQI-8                
1 47299U 20102D   23335.90151432  .00069318  00000+0  14285-2 0  9995
2 47299  97.4373  80.1704 0002024 328.5006  31.6121 15.45663656163885
YAOGAN-33               
1 47302U 20103A   23335.87395723  .00002927  00000+0  62609-3 0  9997
2 47302  98.1505 224.1511 0001821  86.4327 273.7081 14.59511178155937
WEINA 2                 
1 47303U 20103B   23335.87517573  .00003425  00000+0  70879-3 0  9999
2 47303  98.1540 225.0824 0001305 216.3554 143.7559 14.60926883155972
TURKSAT 5A              
1 47306U 21001A   23334.97169324  .00000163  00000+0  00000+0 0  9998
2 47306   0.0263  66.9632 0000317 242.3012 141.0466  1.00272182 10657
CAPE-3                  
1 47309U 21002A   23335.76779670  .00169132  00000+0  17680-2 0  9998
2 47309  60.6676 125.4105 0022845  37.1405 323.1276 15.63281843160254
RADFXSAT-2 (AO-109)     
1 47311U 21002C   23335.74490021  .00093016  00000+0  14089-2 0  9996
2 47311  60.6749 128.6091 0023329  38.4786 321.7973 15.53758348160178
CP12 (EXOCUBE 2)        
1 47319U 21002L   23335.79287336  .00083112  00000+0  13297-2 0  9998
2 47319  60.6729 131.5621 0024181  38.4576 321.8242 15.52270946160093
TIANTONG-1 3            
1 47321U 21003A   23335.84345590 -.00000147  00000+0  00000+0 0  9998
2 47321   3.2843 309.9879 0005068 312.8691 192.7391  1.00274185 10655
GMS-T                   
1 47346U 21004A   23335.73746787  .00000020  00000+0  31603-4 0  9994
2 47346  90.0699 233.1420 0003919  61.0846 299.0678 13.16615279137420
STARLINK-2011           
1 47350U 21005B   23335.81322385  .00005877  00000+0  41292-3 0  9992
2 47350  53.0533 182.5875 0001726 114.8108 245.3061 15.06419222158114
STARLINK-2017           
1 47351U 21005C   23335.77539518  .00002721  00000+0  20132-3 0  9991
2 47351  53.0526 142.7474 0001309  76.7751 283.3383 15.06426456158663
STARLINK-2034           
1 47352U 21005D   23335.79479966  .00002709  00000+0  20063-3 0  9993
2 47352  53.0551 182.6612 0001528 107.7391 252.3764 15.06411023158109
STARLINK-2045           
1 47353U 21005E   23335.75010288  .00003330  00000+0  24230-3 0  9999
2 47353  53.0517 127.8721 0001355  92.7112 267.4032 15.06408088158872
STARLINK-2046           
1 47354U 21005F   23335.76576646  .00002938  00000+0  21604-3 0  9991
2 47354  53.0552 147.8355 0001320  95.8889 264.2251 15.06400131158592
STARLINK-2047           
1 47355U 21005G   23335.71830984  .00001076  00000+0  91076-4 0  9998
2 47355  53.0546 133.0165 0001334  84.7311 275.3830 15.06407078158799
STARLINK-2049           
1 47356U 21005H   23335.76439128 -.00007979  00000+0 -51738-3 0  9999
2 47356  53.0537 152.8115 0001624  70.3845 289.7319 15.06396991158522
STARLINK-2050           
1 47357U 21005J   23335.80855986  .00004208  00000+0  30114-3 0  9994
2 47357  53.0525 182.2929 0001558  87.5085 272.6082 15.06408774158118
STARLINK-2055           
1 47358U 21005K   23335.77451094  .00001802  00000+0  13983-3 0  9995
2 47358  53.0531 152.7517 0001558 105.7258 254.3903 15.06401605158526
STARLINK-2069           
1 47359U 21005L   23335.78606074  .00002866  00000+0  21124-3 0  9994
2 47359  53.0534 177.7097 0001520  75.9081 284.2077 15.06399090158170
STARLINK-2070           
1 47360U 21005M   23335.79248833  .00001082  00000+0  91524-4 0  9993
2 47360  53.0533 147.6813 0001416  91.3822 268.7330 15.06403289158605
STARLINK-2071           
1 47361U 21005N   23335.71647014  .00007195  00000+0  50134-3 0  9992
2 47361  53.0528 153.0259 0001464  93.6013 266.5143 15.06406716158511
STARLINK-2076           
1 47362U 21005P   23335.89432191  .00003828  00000+0  27564-3 0  9990
2 47362  53.0524 182.2270 0001434  98.8942 261.2210 15.06411904158129
STARLINK-2077           
1 47363U 21005Q   23335.89800351  .00003168  00000+0  23150-3 0  9992
2 47363  53.0532 182.2076 0001336  93.1806 266.9335 15.06395128158120
STARLINK-2081           
1 47366U 21005T   23335.85746258  .00004728  00000+0  33590-3 0  9998
2 47366  53.0527 182.3884 0001604 115.2127 244.9028 15.06420403158114
STARLINK-2082           
1 47367U 21005U   23335.81691078 -.00000321  00000+0 -26737-5 0  9998
2 47367  53.0531 182.5763 0001784 112.5591 247.5587 15.06409012158114
STARLINK-2084           
1 47368U 21005V   23335.87589354  .00002936  00000+0  21583-3 0  9992
2 47368  53.0525 182.3080 0001263 104.0369 256.0760 15.06410029158128
